{
  "businessName": "0870861",
  "address_new_director1": {
    "mailing_address": {
      "street": "4433 Full Moon Cir",
      "city": "Mississauga",
      "postal_code": "L4Z 2K8"
    },
    "delivery_address": {
      "street": "D-4603 45 Ave",
      "city": "Innisfail",
      "postal_code": "T4G 1P5"
    }
  },
  "address_new_director2": {
    "mailing_address": {
      "street": "5467 Dellview St",
      "city": "Chilliwack",
      "postal_code": "V2R 3W2"
    },
    "delivery_address": {
      "street": "7852 227 Cres",
      "city": "Langley",
      "postal_code": "V1M 2J7"
    }
  },
  "address_change_director1": {
    "mailing_address": {
      "street": "8655 Av Samuel-Morse",
      "city": "Montr√©al",
      "postal_code": "H1E 5T7"
    },
    "delivery_address": {
      "street": "5673 Remington Cres",
      "city": "Chilliwack",
      "postal_code": "V2R 3W9"
    }
  },
  "address_change_director2": {
    "mailing_address": {
      "street": "0000-621 Dever Rd",
      "city": "Saint John",
      "postal_code": "E2M 4J2"
    },
    "delivery_address": {
      "street": "13451 Loyalist Pky",
      "city": "Picton",
      "postal_code": "K0K 2T0"
    }
  }
}
