{
  "businessName": "LOCAL PUSH CO-OP",
  "fillDefineYourCooperativeForm": {
    "registered_office_address": {
      "mailing": {
        "street": "43-5740 Garrison Rd",
        "city": "Richmond",
        "postal_code": "V7C 5E7"
      },
      "delivery": {
        "street": "9876 158A St",
        "city": "Surrey",
        "postal_code": "V4N 2A3"
      }
    },
    "registered_office_contact": {
      "email": "office1@abc.com",
      "phone": "(343) 434-4343"
    }
  },
  "addPeopleAndRolesForm": {
    "party_address_director1": {
      "mailing": {
        "street": "47750 Briteside Rd",
        "city": "Chilliwack",
        "postal_code": "V2R 4T5"
      },
      "delivery": {
        "street": "2-1 Sidford Rd",
        "city": "Brampton",
        "postal_code": "L7A 0P8"
      }
    },
    "party_address_director2": {
      "mailing": {
        "street": "Bc-3315 Tecumseh Rd E",
        "city": "Windsor",
        "postal_code": "N8W 1H4"
      },
      "delivery": {
        "street": "3-31 Wells Hill Ave",
        "city": "Toronto",
        "postal_code": "M5R 3A5"
      }
    },
    "party_address_director3": {
      "mailing": {
        "street": "47750 Briteside Rd",
        "city": "Chilliwack",
        "postal_code": "V2R 4T5"
      },
      "delivery": {
        "street": "3-31 Wells Hill Ave",
        "city": "Toronto",
        "postal_code": "M5R 3A5"
      }
    },
    "party_address_completing_party": {
      "mailing": {
        "street": "5741 Kathleen Dr",
        "city": "Chilliwack",
        "postal_code": "V2R 3Y8"
      }
    }
  }
}